VSP RF A1               
1 59135U 24043AP  26066.03073316  .00000577  00000+0  25199-4 0  9997
2 59135  97.5247 201.5379 0009431 234.6315 125.4042 15.26179596111403
STARLINK-32536          
1 61925U 24207P   26068.93435982  .00027970  00000+0  10205-2 0  9997
2 61925  43.0003 284.3214 0001924 274.1329  85.9303 15.27629720 74711
